{"type": "FeatureCollection", "features": [ {"type": "Feature", "properties": {"norad_id": 34432, "name": "COSMOS 2251 DEB", "group": "cosmos-2251-debris", "lat": 45.53422531896295, "lon": 136.0204227051065, "alt_km": 999.6444914984995, "timestamp": "2025-12-03T08:58:46.397227+00:00", "meta": {"OBJECT_NAME": "COSMOS 2251 DEB", "OBJECT_ID": "1993-036RZ", "EPOCH": "2025-12-03T02:28:17.071104", "MEAN_MOTION": 14.02836728, "ECCENTRICITY": 0.0183185, "INCLINATION": 73.8275, "RA_OF_ASC_NODE": 119.3014, "ARG_OF_PERICENTER": 203.436, "MEAN_ANOMALY": 276.5797, "EPHEMERIS_TYPE": 0, "CLASSIFICATION_TYPE": "U", "NORAD_CAT_ID": 34432, "ELEMENT_SET_NO": 999, "REV_AT_EPOCH": 85549, "BSTAR": 0.0016055, "MEAN_MOTION_DOT": 2.856e-05, "MEAN_MOTION_DDOT": 0}, "tle": {"line1": "1 34432U 93036RZ  25337.10297536  .00002856  00000+0  16055-2 0  9999", "line2": "2 34432  73.8275 119.3014 0183185 203.4360 276.5797 14.02836728855498"}}, "geometry": {"type": "Point", "coordinates": [136.0204227051065, 45.53422531896295]}}, {"type": "Feature", "properties": {"norad_id": 34433, "name": "COSMOS 2251 DEB", "group": "cosmos-2251-debris", "lat": 71.54852023044032, "lon": -67.71816315763022, "alt_km": 934.7735450384325, "timestamp": "2025-12-03T08:58:46.397238+00:00", "meta": {"OBJECT_NAME": "COSMOS 2251 DEB", "OBJECT_ID": "1993-036SA", "EPOCH": "2025-12-03T00:00:45.111168", "MEAN_MOTION": 14.12779901, "ECCENTRICITY": 0.0151736, "INCLINATION": 74.0107, "RA_OF_ASC_NODE": 172.1866, "ARG_OF_PERICENTER": 312.4155, "MEAN_ANOMALY": 46.4228, "EPHEMERIS_TYPE": 0, "CLASSIFICATION_TYPE": "U", "NORAD_CAT_ID": 34433, "ELEMENT_SET_NO": 999, "REV_AT_EPOCH": 85812, "BSTAR": 0.0017302, "MEAN_MOTION_DOT": 3.559e-05, "MEAN_MOTION_DDOT": 0}, "tle": {"line1": "1 34433U 93036SA  25337.00052212  .00003559  00000+0  17302-2 0  9996", "line2": "2 34433  74.0107 172.1866 0151736 312.4155  46.4228 14.12779901858124"}}, "geometry": {"type": "Point", "coordinates": [-67.71816315763022, 71.54852023044032]}}, {"type": "Feature", "properties": {"norad_id": 34434, "name": "COSMOS 2251 DEB", "group": "cosmos-2251-debris", "lat": 41.0296825098242, "lon": 40.44826196564685, "alt_km": 1030.1267376156184, "timestamp": "2025-12-03T08:58:46.397248+00:00", "meta": {"OBJECT_NAME": "COSMOS 2251 DEB", "OBJECT_ID": "1993-036SB", "EPOCH": "2025-12-03T03:59:45.841056", "MEAN_MOTION": 13.89690625, "ECCENTRICITY": 0.0276418, "INCLINATION": 74.064, "RA_OF_ASC_NODE": 26.4049, "ARG_OF_PERICENTER": 165.8873, "MEAN_ANOMALY": 281.5257, "EPHEMERIS_TYPE": 0, "CLASSIFICATION_TYPE": "U", "NORAD_CAT_ID": 34434, "ELEMENT_SET_NO": 999, "REV_AT_EPOCH": 83833, "BSTAR": 0.0038588, "MEAN_MOTION_DOT": 6.416e-05, "MEAN_MOTION_DDOT": 0}, "tle": {"line1": "1 34434U 93036SB  25337.16650279  .00006416  00000+0  38588-2 0  9995", "line2": "2 34434  74.0640  26.4049 0276418 165.8873 281.5257 13.89690625838336"}}, "geometry": {"type": "Point", "coordinates": [40.44826196564685, 41.0296825098242]}}, {"type": "Feature", "properties": {"norad_id": 34446, "name": "COSMOS 2251 DEB", "group": "cosmos-2251-debris", "lat": 24.06385189041218, "lon": 82.18540591622939, "alt_km": 763.0158721587941, "timestamp": "2025-12-03T08:58:46.397258+00:00", "meta": {"OBJECT_NAME": "COSMOS 2251 DEB", "OBJECT_ID": "1993-036SP", "EPOCH": "2025-12-03T00:34:47.919936", "MEAN_MOTION": 14.49332829, "ECCENTRICITY": 0.0051584, "INCLINATION": 74.0422, "RA_OF_ASC_NODE": 75.5002, "ARG_OF_PERICENTER": 215.6872, "MEAN_ANOMALY": 144.0836, "EPHEMERIS_TYPE": 0, "CLASSIFICATION_TYPE": "U", "NORAD_CAT_ID": 34446, "ELEMENT_SET_NO": 999, "REV_AT_EPOCH": 88553, "BSTAR": 0.00023336, "MEAN_MOTION_DOT": 8.78e-06, "MEAN_MOTION_DDOT": 0}, "tle": {"line1": "1 34446U 93036SP  25337.02416574  .00000878  00000+0  23336-3 0  9993", "line2": "2 34446  74.0422  75.5002 0051584 215.6872 144.0836 14.49332829885535"}}, "geometry": {"type": "Point", "coordinates": [82.18540591622939, 24.06385189041218]}}, {"type": "Feature", "properties": {"norad_id": 34449, "name": "COSMOS 2251 DEB", "group": "cosmos-2251-debris", "lat": 73.62994902280916, "lon": -167.65687415369501, "alt_km": 566.1470127635002, "timestamp": "2025-12-03T08:58:46.397268+00:00", "meta": {"OBJECT_NAME": "COSMOS 2251 DEB", "OBJECT_ID": "1993-036SS", "EPOCH": "2025-12-02T18:39:11.250720", "MEAN_MOTION": 14.93823339, "ECCENTRICITY": 0.0024974, "INCLINATION": 74.0327, "RA_OF_ASC_NODE": 90.6345, "ARG_OF_PERICENTER": 139.9979, "MEAN_ANOMALY": 344.9369, "EPHEMERIS_TYPE": 0, "CLASSIFICATION_TYPE": "U", "NORAD_CAT_ID": 34449, "ELEMENT_SET_NO": 999, "REV_AT_EPOCH": 88544, "BSTAR": 0.0042416, "MEAN_MOTION_DOT": 0.00045559, "MEAN_MOTION_DDOT": 0}, "tle": {"line1": "1 34449U 93036SS  25336.77721355  .00045559  00000+0  42416-2 0  9997", "line2": "2 34449  74.0327  90.6345 0024974 139.9979 344.9369 14.93823339885441"}}, "geometry": {"type": "Point", "coordinates": [-167.65687415369501, 73.62994902280916]}}, {"type": "Feature", "properties": {"norad_id": 34451, "name": "COSMOS 2251 DEB", "group": "cosmos-2251-debris", "lat": 39.1024162834997, "lon": 120.19379847650124, "alt_km": 581.0685755022205, "timestamp": "2025-12-03T08:58:46.397279+00:00", "meta": {"OBJECT_NAME": "COSMOS 2251 DEB", "OBJECT_ID": "1993-036SU", "EPOCH": "2025-12-02T10:18:18.339552", "MEAN_MOTION": 14.94509424, "ECCENTRICITY": 0.00259091, "INCLINATION": 74.0446, "RA_OF_ASC_NODE": 108.65, "ARG_OF_PERICENTER": 135.584, "MEAN_ANOMALY": 224.7428, "EPHEMERIS_TYPE": 0, "CLASSIFICATION_TYPE": "U", "NORAD_CAT_ID": 34451, "ELEMENT_SET_NO": 999, "REV_AT_EPOCH": 88481, "BSTAR": 0.0036537809, "MEAN_MOTION_DOT": 0.00039917, "MEAN_MOTION_DDOT": 0}, "tle": {"line1": "1 34451U 93036SU  25336.42937893  .00039917  00000+0  36538-2 0  9997", "line2": "2 34451  74.0446 108.6500 0025909 135.5840 224.7428 14.94509424884815"}}, "geometry": {"type": "Point", "coordinates": [120.19379847650124, 39.1024162834997]}}, {"type": "Feature", "properties": {"norad_id": 34452, "name": "COSMOS 2251 DEB", "group": "cosmos-2251-debris", "lat": -56.23372332912293, "lon": 176.8460669503889, "alt_km": 495.12329076840706, "timestamp": "2025-12-03T08:58:46.397289+00:00", "meta": {"OBJECT_NAME": "COSMOS 2251 DEB", "OBJECT_ID": "1993-036SV", "EPOCH": "2025-12-03T01:58:09.137280", "MEAN_MOTION": 15.11274569, "ECCENTRICITY": 0.0067399, "INCLINATION": 74.0365, "RA_OF_ASC_NODE": 202.7999, "ARG_OF_PERICENTER": 281.1787, "MEAN_ANOMALY": 230.2729, "EPHEMERIS_TYPE": 0, "CLASSIFICATION_TYPE": "U", "NORAD_CAT_ID": 34452, "ELEMENT_SET_NO": 999, "REV_AT_EPOCH": 90516, "BSTAR": 0.0010437, "MEAN_MOTION_DOT": 0.00018558, "MEAN_MOTION_DDOT": 0}, "tle": {"line1": "1 34452U 93036SV  25337.08205020  .00018558  00000+0  10437-2 0  9999", "line2": "2 34452  74.0365 202.7999 0067399 281.1787 230.2729 15.11274569905168"}}, "geometry": {"type": "Point", "coordinates": [176.8460669503889, -56.23372332912293]}}, {"type": "Feature", "properties": {"norad_id": 34453, "name": "COSMOS 2251 DEB", "group": "cosmos-2251-debris", "lat": 7.229235472445192, "lon": 122.33237484541415, "alt_km": 384.6838932151086, "timestamp": "2025-12-03T08:58:46.397299+00:00", "meta": {"OBJECT_NAME": "COSMOS 2251 DEB", "OBJECT_ID": "1993-036SW", "EPOCH": "2025-12-03T02:46:47.863200", "MEAN_MOTION": 15.57018713, "ECCENTRICITY": 0.0018564, "INCLINATION": 74.1164, "RA_OF_ASC_NODE": 120.8322, "ARG_OF_PERICENTER": 353.4138, "MEAN_ANOMALY": 6.6831, "EPHEMERIS_TYPE": 0, "CLASSIFICATION_TYPE": "U", "NORAD_CAT_ID": 34453, "ELEMENT_SET_NO": 999, "REV_AT_EPOCH": 88716, "BSTAR": 0.011659, "MEAN_MOTION_DOT": 0.00935462, "MEAN_MOTION_DDOT": 0}, "tle": {"line1": "1 34453U 93036SW  25337.11583175  .00935462  00000+0  11659-1 0  9992", "line2": "2 34453  74.1164 120.8322 0018564 353.4138   6.6831 15.57018713887165"}}, "geometry": {"type": "Point", "coordinates": [122.33237484541415, 7.229235472445192]}}, {"type": "Feature", "properties": {"norad_id": 34454, "name": "COSMOS 2251 DEB", "group": "cosmos-2251-debris", "lat": -72.34224461290337, "lon": 178.76832377645374, "alt_km": 772.518879555566, "timestamp": "2025-12-03T08:58:46.397309+00:00", "meta": {"OBJECT_NAME": "COSMOS 2251 DEB", "OBJECT_ID": "1993-036SX", "EPOCH": "2025-12-03T04:25:29.301024", "MEAN_MOTION": 14.38780721, "ECCENTRICITY": 0.0035187, "INCLINATION": 74.0585, "RA_OF_ASC_NODE": 295.2348, "ARG_OF_PERICENTER": 359.8521, "MEAN_ANOMALY": 0.2617, "EPHEMERIS_TYPE": 0, "CLASSIFICATION_TYPE": "U", "NORAD_CAT_ID": 34454, "ELEMENT_SET_NO": 999, "REV_AT_EPOCH": 87930, "BSTAR": 0.00037522, "MEAN_MOTION_DOT": 1.135e-05, "MEAN_MOTION_DDOT": 0}, "tle": {"line1": "1 34454U 93036SX  25337.18436691  .00001135  00000+0  37522-3 0  9990", "line2": "2 34454  74.0585 295.2348 0035187 359.8521   0.2617 14.38780721879305"}}, "geometry": {"type": "Point", "coordinates": [178.76832377645374, -72.34224461290337]}}, {"type": "Feature", "properties": {"norad_id": 34459, "name": "COSMOS 2251 DEB", "group": "cosmos-2251-debris", "lat": 62.169539874681185, "lon": 57.50642973083601, "alt_km": 975.6481487206165, "timestamp": "2025-12-03T08:58:46.397319+00:00", "meta": {"OBJECT_NAME": "COSMOS 2251 DEB", "OBJECT_ID": "1993-036TC", "EPOCH": "2025-12-03T01:35:20.208768", "MEAN_MOTION": 14.00468538, "ECCENTRICITY": 0.0191865, "INCLINATION": 74.0791, "RA_OF_ASC_NODE": 270.7677, "ARG_OF_PERICENTER": 342.7417, "MEAN_ANOMALY": 16.725, "EPHEMERIS_TYPE": 0, "CLASSIFICATION_TYPE": "U", "NORAD_CAT_ID": 34459, "ELEMENT_SET_NO": 999, "REV_AT_EPOCH": 85576, "BSTAR": 0.00082492, "MEAN_MOTION_DOT": 1.411e-05, "MEAN_MOTION_DDOT": 0}, "tle": {"line1": "1 34459U 93036TC  25337.06620612  .00001411  00000+0  82492-3 0  9993", "line2": "2 34459  74.0791 270.7677 0191865 342.7417  16.7250 14.00468538855760"}}, "geometry": {"type": "Point", "coordinates": [57.50642973083601, 62.169539874681185]}}]}